STARLINK-31
1 44235U 19029A   19274.88883975  .00001124  00000-0  96465-4 0  9990
2 44235  53.0037 305.2419 0001396 101.5972 258.5173 15.05518455 20974
STARLINK-22
1 44236U 19029B   19274.57247163  .00001078  00000-0  98129-4 0  9997
2 44236  52.9983 307.0218 0000998 343.1182  16.9771 15.03470804 19009
STARLINK-23
1 44237U 19029C   19274.89547792  .00000880  00000-0  79694-4 0  9990
2 44237  53.0002 305.0615 0001192 138.5275 221.5804 15.05491911 19071
STARLINK-24
1 44238U 19029D   19275.53610485  .00000031  00000-0  21343-4 0  9999
2 44238  52.9985 301.5020 0001315 112.3362 247.7765 15.05512394 19890
STARLINK-25
1 44239U 19029E   19275.40998235  .00000739  00000-0  70038-4 0  9998
2 44239  53.0072 303.1132 0002188  88.0786 272.0452 15.05508422 19868
STARLINK-26
1 44240U 19029F   19274.55911698  .00001059  00000-0  92018-4 0  9991
2 44240  53.0060 304.9094 0001797 103.1105 257.0083 15.05493253 19040
STARLINK-27
1 44241U 19029G   19274.75274381  .00001019  00000-0  89315-4 0  9997
2 44241  53.0061 305.9396 0001099 121.3323 238.7773 15.05489493 19040
STARLINK-28
1 44242U 19029H   19274.60227923  .00001240  00000-0  10442-3 0  9992
2 44242  52.9990 305.7532 0000906 165.6341 194.4673 15.05500397 19029
STARLINK-29
1 44243U 19029J   19274.53549475  .00001483  00000-0  45436-4 0  9995
2 44243  53.0023 276.5916 0005820 325.2745  34.7878 15.40807458 20215
STARLINK-30
1 44244U 19029K   19275.43761749  .00000882  00000-0  79833-4 0  9996
2 44244  53.0021 302.4762 0001228 130.8493 229.2602 15.05499811 19912
STARLINK-21
1 44245U 19029L   19275.48741764  .00001039  00000-0  90685-4 0  9990
2 44245  52.9991 302.4861 0001605  87.1482 272.9689 15.05496958 19939
STARLINK-46
1 44246U 19029M   19275.11701080  .00008109  00000-0  91040-4 0  9999
2 44246  53.0004 258.6523 0026435 314.7396  45.1465 15.63305426 20279
STARLINK-33
1 44247U 19029N   19274.70848283  .00001015  00000-0  88990-4 0  9990
2 44247  53.0026 305.7354 0001631 110.6044 249.5119 15.05493743 19049
STARLINK-34
1 44248U 19029P   19274.74153377  .00000265  00000-0  37332-4 0  9998
2 44248  52.9986 305.0127 0000382 304.7765  55.3187 15.05549973 19788
STARLINK-61
1 44249U 19029Q   19274.56518459  .00000193  00000-0  28766-4 0  9996
2 44249  53.0015 302.2141 0001674 192.6458 167.4490 15.11187562 19889
STARLINK-36
1 44250U 19029R   19275.49737349  .00001148  00000-0  98199-4 0  9990
2 44250  53.0014 302.3080 0001635 112.1562 247.9600 15.05490923 19915
STARLINK-37
1 44251U 19029S   19275.46862835  .00001031  00000-0  90171-4 0  9990
2 44251  52.9836 301.6475 0004565 109.2593 250.8889 15.05498241 19881
STARLINK-71
1 44252U 19029T   19274.61444372  .00001076  00000-0  93184-4 0  9995
2 44252  53.0011 305.4321 0001373 131.4574 228.6532 15.05516692 18878
STARLINK-39
1 44253U 19029U   19274.62219342  .00000916  00000-0  82156-4 0  9993
2 44253  53.0060 306.4923 0001049  82.8076 277.3031 15.05521467 18879
STARLINK-32
1 44254U 19029V   19274.56464932  .00001452  00000-0  11904-3 0  9992
2 44254  53.0000 306.5410 0001491 103.3245 256.7909 15.05497344 19034
STARLINK-66
1 44255U 19029W   19275.44981813  .00000808  00000-0  74813-4 0  9996
2 44255  53.0033 302.2500 0000958 124.7089 235.3989 15.05471696 19891
STARLINK-42
1 44256U 19029X   19275.22373114  .00000231  00000-0  35046-4 0  9997
2 44256  52.9992 303.1641 0000921  70.2042 289.9045 15.05572030 19829
STARLINK-43
1 44257U 19029Y   19275.40070934  .00003898  00000-0  15259-3 0  9997
2 44257  52.9999 284.7857 0001016  88.8723 271.2391 15.28176623 20189
STARLINK-40
1 44258U 19029Z   19275.49517655  .00000889  00000-0  80340-4 0  9994
2 44258  53.0008 302.3499 0000858 142.1107 217.9941 15.05498126 19934
STARLINK-52
1 44259U 19029AA  19274.71153921  .00001727  00000-0  51774-4 0  9992
2 44259  53.0024 276.9897 0001556 109.2480 250.8692 15.40481501 20103
STARLINK-45
1 44260U 19029AB  19275.35684168  .00001287  00000-0  10768-3 0  9995
2 44260  53.0108 301.6308 0000983 185.5373 174.5605 15.05492610 19997
STARLINK-44
1 44261U 19029AC  19275.23072562  .00000119  00000-0  27383-4 0  9997
2 44261  53.0008 303.5159 0000874 116.0471 244.0607 15.05497881 19911
STARLINK-49
1 44262U 19029AD  19274.75163746  .00001042  00000-0  90877-4 0  9993
2 44262  53.0059 305.9583 0001267 113.6720 246.4401 15.05479502 19842
STARLINK-72
1 44263U 19029AE  19275.45976914  .00000715  00000-0  68379-4 0  9999
2 44263  53.0024 302.5345 0001054 153.2982 206.8060 15.05507630 19933
STARLINK-35
1 44264U 19029AF  19275.10348907  .00001062  00000-0  92212-4 0  9996
2 44264  53.0020 304.0159 0000814 111.6337 248.4737 15.05499412 19879
STARLINK-63
1 44265U 19029AG  19274.59451300  .00001198  00000-0  10159-3 0  9990
2 44265  53.0011 305.9343 0001105 139.3381 220.7690 15.05485831 19832
STARLINK-54
1 44266U 19029AH  19274.60448902  .00000893  00000-0  80607-4 0  9994
2 44266  52.9957 305.6771 0001885 109.5540 250.5652 15.05501853 19767
STARLINK-69
1 44267U 19029AJ  19275.45056991  .00000102  00000-0  26184-4 0  9995
2 44267  53.0004 302.0136 0001302  41.4145 318.6941 15.05579522 19932
STARLINK-55
1 44268U 19029AK  19275.40444632 -.00000282  00000-0 -18674-6 0  9992
2 44268  52.9985 302.4115 0001425 105.2992 254.8153 15.05514602 19894
STARLINK-57
1 44269U 19029AL  19275.46307420  .00000908  00000-0  81700-4 0  9993
2 44269  52.9991 302.0235 0001948  92.5051 267.6159 15.05474659 19979
STARLINK-58
1 44270U 19029AM  19274.59447859  .00000124  00000-0  27658-4 0  9991
2 44270  53.0002 305.8995 0000943  77.6447 282.4646 15.05554577 19038
STARLINK-59
1 44271U 19029AN  19274.59895377  .00000381  00000-0  45380-4 0  9991
2 44271  52.9996 305.8499 0001014 122.1530 237.9557 15.05486290 19837
STARLINK-51
1 44272U 19029AP  19275.43651928  .00000422  00000-0  48217-4 0  9996
2 44272  53.0001 302.4841 0001813 110.5426 249.5757 15.05484056 19922
STARLINK-60
1 44273U 19029AQ  19275.22143906  .00019536  00000-0  40171-3 0  9992
2 44273  53.0003 270.8814 0005848 336.7906  23.2834 15.45990598 20348
STARLINK-62
1 44274U 19029AR  19274.59341908  .00000909  00000-0  81746-4 0  9992
2 44274  53.0016 305.4424 0000912 127.3198 232.7873 15.05483270 19808
STARLINK-64
1 44275U 19029AS  19274.59117289  .00000801  00000-0  74043-4 0  9999
2 44275  53.0010 305.9690 0000856  12.3898 347.7111 15.05608265 19793
STARLINK-65
1 44276U 19029AT  19275.44537172  .00001164  00000-0  99263-4 0  9996
2 44276  53.0033 302.3340 0000821 149.2727 210.8309 15.05476538 19947
STARLINK-41
1 44277U 19029AU  19275.45075065  .00000214  00000-0  33858-4 0  9999
2 44277  53.0028 302.2218 0001067 102.4321 257.6787 15.05532675 19943
STARLINK-67
1 44278U 19029AV  19275.43770321  .00029432  00000-0  13976-3 0  9996
2 44278  52.9972 248.2743 0027418  18.7445 341.4579 15.82147624 20669
STARLINK-68
1 44279U 19029AW  19274.59120678  .00001152  00000-0  98432-4 0  9997
2 44279  53.0018 305.3981 0001314 125.8069 234.3041 15.05480579 19780
STARLINK-38
1 44280U 19029AX  19274.58123674  .00000722  00000-0  68866-4 0  9997
2 44280  53.0030 306.1811 0001133  83.2085 276.9032 15.05494719 19032
STARLINK-70
1 44281U 19029AY  19274.72287264  .00001221  00000-0  10321-3 0  9997
2 44281  53.0017 305.4367 0001408 105.4494 254.6649 15.05483436 19055
STARLINK-80
1 44282U 19029AZ  19274.57148715  .00004521  00000-0  20276-3 0  9994
2 44282  53.0309 293.3580 0001860 120.6937 239.4242 15.23153960 19972
STARLINK-56
1 44283U 19029BA  19274.57901899  .00000632  00000-0  62633-4 0  9998
2 44283  53.0031 306.2738 0000991 149.3665 210.7381 15.05490908 19011
STARLINK-73
1 44284U 19029BB  19275.50954517  .00001248  00000-0  10508-3 0  9995
2 44284  53.0029 302.0745 0001064 113.7803 246.3297 15.05478669 19945
STARLINK-50
1 44285U 19029BC  19275.43986478  .00000536  00000-0  56092-4 0  9997
2 44285  53.0010 302.4205 0001856 107.6260 252.4931 15.05490608 21009
STARLINK-75
1 44286U 19029BD  19274.59522997  .00000161  00000-0  28638-4 0  9995
2 44286  53.0028 304.8552 0001635  50.3284 309.7849 15.08125376 19040
STARLINK-76
1 44287U 19029BE  19275.22629131  .00000868  00000-0  78866-4 0  9997
2 44287  52.9998 303.6023 0001490 110.4642 249.6506 15.05498981 20967
STARLINK-79
1 44288U 19029BF  19274.61553955  .00001098  00000-0  94676-4 0  9993
2 44288  53.0065 306.6288 0001197 120.6336 239.4770 15.05497595 20889
STARLINK-48
1 44289U 19029BG  19275.19381524  .00001158  00000-0  68927-4 0  9996
2 44289  53.0011 292.7522 0001679 103.9935 256.1246 15.19430408 21106
STARLINK-78
1 44290U 19029BH  19274.61666512  .00001174  00000-0  99943-4 0  9997
2 44290  53.0062 306.5239 0001706 103.3727 256.7451 15.05502021 19025
STARLINK-77
1 44291U 19029BJ  19274.61223102  .00000523  00000-0  55219-4 0  9997
2 44291  53.0070 306.7041 0001840 109.8289 250.2897 15.05487803 20879
STARLINK-81
1 44292U 19029BK  19275.47304831  .00000745  00000-0  70423-4 0  9992
2 44292  53.0069 302.8700 0001714 101.2648 258.8532 15.05492778 21005
STARLINK-74
1 44293U 19029BL  19275.21854617  .00001015  00000-0  88988-4 0  9993
2 44293  53.0063 303.8758 0001502  99.8624 260.2534 15.05497868 20963
STARLINK-53
1 44294U 19029BM  19275.46418158  .00000688  00000-0  66513-4 0  9992
2 44294  52.9991 301.9026 0000907 114.5440 245.5642 15.05499780 21005
